[{"OBJECT_NAME":"QIANFAN-77","OBJECT_ID":"2025-046E","EPOCH":"2026-03-09T21:49:05.579904","MEAN_MOTION":13.96177726,"ECCENTRICITY":0.00149954,"INCLINATION":88.9748,"RA_OF_ASC_NODE":308.4137,"ARG_OF_PERICENTER":160.933,"MEAN_ANOMALY":199.2411,"EPHEMERIS_TYPE":0,"CLASSIFICATION_TYPE":"U","NORAD_CAT_ID":63163,"ELEMENT_SET_NO":999,"REV_AT_EPOCH":6061,"BSTAR":0.00024077108,"MEAN_MOTION_DOT":3.45e-6,"MEAN_MOTION_DDOT":0},{"OBJECT_NAME":"IRS-1A","OBJECT_ID":"1988-021A","EPOCH":"2026-03-09T17:48:35.102880","MEAN_MOTION":13.97157153,"ECCENTRICITY":0.00153021,"INCLINATION":98.8636,"RA_OF_ASC_NODE":127.0444,"ARG_OF_PERICENTER":122.058,"MEAN_ANOMALY":348.5561,"EPHEMERIS_TYPE":0,"CLASSIFICATION_TYPE":"U","NORAD_CAT_ID":18960,"ELEMENT_SET_NO":999,"REV_AT_EPOCH":83928,"BSTAR":0.00017893633,"MEAN_MOTION_DOT":2.08e-6,"MEAN_MOTION_DDOT":0}]
